[{"OBJECT_NAME":"STARLINK-3335","OBJECT_ID":"2022-001D","EPOCH":"2026-03-09T13:10:41.253312","MEAN_MOTION":15.08834941,"ECCENTRICITY":0.00011913,"INCLINATION":53.218,"RA_OF_ASC_NODE":159.7568,"ARG_OF_PERICENTER":95.404,"MEAN_ANOMALY":264.7088,"EPHEMERIS_TYPE":0,"CLASSIFICATION_TYPE":"U","NORAD_CAT_ID":50806,"ELEMENT_SET_NO":999,"REV_AT_EPOCH":23052,"BSTAR":8.8792374e-5,"MEAN_MOTION_DOT":1.125e-5,"MEAN_MOTION_DDOT":0},{"OBJECT_NAME":"LEMUR-2-SIERRINI","OBJECT_ID":"2024-149DR","EPOCH":"2026-03-09T19:24:50.445216","MEAN_MOTION":15.08682764,"ECCENTRICITY":0.00065795,"INCLINATION":97.6873,"RA_OF_ASC_NODE":151.1225,"ARG_OF_PERICENTER":147.8458,"MEAN_ANOMALY":212.3173,"EPHEMERIS_TYPE":0,"CLASSIFICATION_TYPE":"U","NORAD_CAT_ID":60579,"ELEMENT_SET_NO":999,"REV_AT_EPOCH":8546,"BSTAR":0.00092040134,"MEAN_MOTION_DOT":0.00014386,"MEAN_MOTION_DDOT":0}]
